[{"OBJECT_NAME":"DOORY-SAT","OBJECT_ID":"2023-188A","EPOCH":"2026-03-09T23:27:23.333760","MEAN_MOTION":14.80342987,"ECCENTRICITY":0.00094423,"INCLINATION":46.9821,"RA_OF_ASC_NODE":60.4458,"ARG_OF_PERICENTER":285.1315,"MEAN_ANOMALY":74.8534,"EPHEMERIS_TYPE":0,"CLASSIFICATION_TYPE":"U","NORAD_CAT_ID":58500,"ELEMENT_SET_NO":999,"REV_AT_EPOCH":12229,"BSTAR":0.00032429984,"MEAN_MOTION_DOT":2.298e-5,"MEAN_MOTION_DDOT":0},{"OBJECT_NAME":"KUIPER-00090","OBJECT_ID":"2025-151V","EPOCH":"2026-03-09T21:15:17.323488","MEAN_MOTION":14.7992851,"ECCENTRICITY":6.399e-5,"INCLINATION":51.8979,"RA_OF_ASC_NODE":277.2553,"ARG_OF_PERICENTER":106.9589,"MEAN_ANOMALY":253.1443,"EPHEMERIS_TYPE":0,"CLASSIFICATION_TYPE":"U","NORAD_CAT_ID":64835,"ELEMENT_SET_NO":999,"REV_AT_EPOCH":3564,"BSTAR":9.343077e-6,"MEAN_MOTION_DOT":-1.5e-6,"MEAN_MOTION_DDOT":0}]
